{"type":"FeatureCollection","output_crs":"EPSG:4326","boundary_role":"SOURCE_STUDY_AREA_BOUNDING_POLYGON","features":[{"type":"Feature","geometry":{"type":"Polygon","coordinates":[[[144.65,-37.99],[145.22,-37.99],[145.22,-37.66],[144.65,-37.66],[144.65,-37.99]]]},"properties":{"source_geometry_id":"study_area.txt:WEST,SOUTH,EAST,NORTH","boundary_type":"SOURCE_STUDY_AREA_BOUNDING_POLYGON","name":"melbourne_study_v01","geometry_status":"AVAILABLE_SOURCE_BOUNDS","metropolitan_outline_status":"UNRESOLVED","not_an_administrative_or_coastal_outline":true}}]}
