{"type":"FeatureCollection","output_crs":"EPSG:4326","attribution":"© OpenStreetMap contributors; ODbL","features":[{"type":"Feature","geometry":{"type":"LineString","coordinates":[[145.0024201,-37.9519155],[145.0025192,-37.9520732],[145.0026172,-37.9521958],[145.0026544,-37.9522637],[145.0026903,-37.9523295],[145.0027172,-37.9523755],[145.0027379,-37.9523977],[145.002742,-37.9524104],[145.0027648,-37.9524427],[145.0027755,-37.9524538],[145.0027936,-37.9524681],[145.002807,-37.9524728],[145.0028137,-37.9525056],[145.0028278,-37.952522],[145.0028452,-37.9525495],[145.0028694,-37.9525807],[145.0029569,-37.9526701],[145.0030819,-37.9528087],[145.0031968,-37.9529179],[145.0033641,-37.9531364],[145.0035212,-37.9532762],[145.0037095,-37.9534533],[145.0040053,-37.9537206],[145.0042634,-37.953921],[145.004527,-37.9541976],[145.0045967,-37.9542959],[145.0046906,-37.9543794],[145.0051086,-37.9547879],[145.0053937,-37.9551153],[145.0055603,-37.9553456],[145.0059256,-37.9557957],[145.0061419,-37.9560449],[145.0063987,-37.9564312],[145.0065001,-37.9565938],[145.0065221,-37.956679],[145.0064891,-37.9567923],[145.006348,-37.9568613],[145.006214,-37.9569259],[145.0062726,-37.9569937],[145.0064136,-37.9569232],[145.0065712,-37.9570084],[145.0068082,-37.9572409],[145.0072011,-37.9575993],[145.0073701,-37.9578658],[145.0074492,-37.9579906],[145.0076142,-37.9581418],[145.0081278,-37.9586652],[145.0084589,-37.9590933],[145.0085497,-37.9591725],[145.0086058,-37.9592221],[145.0086492,-37.9592646],[145.0086586,-37.9592985],[145.008668,-37.9593296],[145.0083795,-37.9594809],[145.0084458,-37.9595554],[145.0086986,-37.9594201],[145.0087305,-37.9594461],[145.0090845,-37.9597499],[145.0094685,-37.9601733],[145.0097099,-37.960471],[145.0099537,-37.9607924],[145.0101048,-37.9610349],[145.0102568,-37.9612431],[145.0103465,-37.9614171],[145.010504,-37.9617533],[145.0106813,-37.9621335],[145.0107797,-37.9623534],[145.0108819,-37.962559],[145.0109724,-37.9626865],[145.0110767,-37.9629324],[145.0111916,-37.9632455],[145.0112544,-37.9634603],[145.0112938,-37.9636835],[145.0112949,-37.9638352],[145.011268,-37.9639314],[145.0111862,-37.9640763],[145.0111306,-37.964154],[145.0110642,-37.9642174],[145.0109944,-37.9642846],[145.01092,-37.9643247],[145.010867,-37.9643364],[145.01071,-37.9642928],[145.0106073,-37.9642097],[145.0105604,-37.9641862],[145.0105178,-37.9642156],[145.0104848,-37.9642676],[145.0105051,-37.9643096],[145.010564,-37.9643469],[145.0105828,-37.9643498],[145.010637,-37.9643892],[145.0106699,-37.9644442],[145.0106853,-37.9644654],[145.0107229,-37.9645145],[145.010731,-37.9645495],[145.0107329,-37.9645579],[145.0107349,-37.9645695],[145.0107289,-37.964588],[145.0107128,-37.9646303],[145.0107041,-37.9646758],[145.0107007,-37.9647107],[145.0107316,-37.9647598],[145.0107705,-37.9647873],[145.0107935,-37.9648013],[145.0108595,-37.9648718],[145.010917,-37.9649927],[145.0109947,-37.9651454],[145.0110192,-37.9652671],[145.0110354,-37.9653101],[145.0110333,-37.9653318],[145.0110246,-37.9653556],[145.0110099,-37.9653826],[145.0110166,-37.9654153],[145.0110696,-37.9654719],[145.011034,-37.9654814],[145.0111004,-37.9656263],[145.0111453,-37.9657162],[145.0111701,-37.9657833],[145.0111822,-37.9658155],[145.0111956,-37.965879],[145.0111835,-37.9659324],[145.0111721,-37.9659699],[145.011152,-37.9660307],[145.01115,-37.9660698],[145.0111789,-37.9661314],[145.0112808,-37.9663299],[145.0113626,-37.9665192],[145.0113934,-37.9666238],[145.0114042,-37.9667137],[145.0114202,-37.966812],[145.0114216,-37.9669706],[145.0114042,-37.9671747],[145.0113948,-37.9675553],[145.0113317,-37.9678862],[145.0112875,-37.9681384],[145.0112409,-37.9682933],[145.011176,-37.9684542],[145.0111223,-37.9685606],[145.0110856,-37.9686152],[145.0110594,-37.9686875],[145.0110394,-37.968733],[145.0110142,-37.9687696],[145.0110436,-37.9687813],[145.0108841,-37.9689694],[145.0108577,-37.9689863],[145.0108342,-37.969],[145.0107973,-37.9690122],[145.0107571,-37.9690191],[145.0107182,-37.9690196],[145.010677,-37.9690158],[145.0105974,-37.9690085],[145.010379,-37.9691346],[145.0102975,-37.9691763],[145.0102523,-37.9691937],[145.010197,-37.9692161],[145.0101335,-37.9692353],[145.0100382,-37.9692636],[145.0099697,-37.9692759],[145.0098568,-37.9692915],[145.0094944,-37.9693037],[145.0094577,-37.9693127],[145.0094142,-37.9693334],[145.0093533,-37.9693858],[145.009323,-37.9694305],[145.0093195,-37.9694773],[145.0093281,-37.9695223],[145.0093522,-37.9695575],[145.0093749,-37.969582],[145.0094761,-37.9696695],[145.0099199,-37.9699896],[145.0100676,-37.9700088],[145.0102642,-37.9701487],[145.0103796,-37.9702534],[145.0105237,-37.9704134],[145.01065,-37.9705747],[145.010721,-37.9706986],[145.0107564,-37.9708011],[145.0108342,-37.9708917],[145.010873,-37.9709303],[145.0108899,-37.9710129],[145.0109339,-37.9710489],[145.0109778,-37.9710862],[145.0110454,-37.97125],[145.0110657,-37.9713766],[145.0111096,-37.9714445],[145.0112431,-37.9714951],[145.0113343,-37.9715151],[145.0114091,-37.9715408],[145.0115388,-37.9717056],[145.0116351,-37.9718135],[145.0117297,-37.9719573],[145.0117838,-37.9722064],[145.0119646,-37.972317],[145.0121739,-37.9724006],[145.0123447,-37.9725327],[145.0126725,-37.9728338],[145.0131085,-37.9732414],[145.0136847,-37.9739897],[145.0137658,-37.9741364],[145.0139145,-37.9743003],[145.0141679,-37.9746306],[145.0145285,-37.975329],[145.0146155,-37.9754847],[145.0147199,-37.9756695],[145.0148572,-37.9759086],[145.0150055,-37.9761602],[145.0150479,-37.9762496],[145.0151259,-37.9763525],[145.015197,-37.9764144],[145.0152362,-37.9764632],[145.0152816,-37.976532],[145.0153847,-37.9767031],[145.0154763,-37.9768441],[145.0155282,-37.976945],[145.015586,-37.9770354],[145.0156929,-37.9771486],[145.0158514,-37.9773112],[145.0159421,-37.9774095],[145.0160584,-37.977544],[145.016181,-37.9777183],[145.0162788,-37.9778767],[145.0163937,-37.978076],[145.0164779,-37.9782037],[145.0167004,-37.9785108],[145.0168985,-37.9788015],[145.0169889,-37.9789255],[145.0170473,-37.9790267],[145.0171559,-37.9792323],[145.0172808,-37.9794646]]},"properties":{"source_geometry_id":"osm:way/1050965391","geometry_status":"AVAILABLE_SOURCE_VERTICES","source_tags":{"natural":"coastline","source":"yahoo"},"source_authority":["S022","S023"],"selection":"Original segments with segment bbox intersecting plot extent; no synthetic clipping vertices"}},{"type":"Feature","geometry":{"type":"LineString","coordinates":[[144.995268,-37.9448581],[144.9951276,-37.9448348],[144.994967,-37.9448086],[144.9942271,-37.9445514],[144.9941062,-37.9445048],[144.994081,-37.9444819],[144.994065,-37.9444575],[144.9940155,-37.9444397],[144.9939636,-37.9444339],[144.9939136,-37.944436],[144.9938796,-37.9444261],[144.9937803,-37.9443954],[144.9936809,-37.9443536],[144.9935281,-37.9442783],[144.9934323,-37.9441892],[144.9933596,-37.9440788],[144.9933077,-37.9439489],[144.99328,-37.9438407],[144.9932558,-37.9437298],[144.9932411,-37.9434911],[144.9932457,-37.9434492],[144.9932581,-37.9434227],[144.9932732,-37.9433972],[144.9932782,-37.9433637],[144.9932698,-37.9433287],[144.9932531,-37.9432971],[144.9932257,-37.9432789],[144.9932157,-37.9432536],[144.9931722,-37.9428243],[144.9930869,-37.9421658],[144.9930743,-37.9420687],[144.9930496,-37.9417883],[144.9930315,-37.9417322],[144.9930468,-37.9416833],[144.9930991,-37.9416348],[144.9931332,-37.9416119],[144.9931197,-37.9415726],[144.9930615,-37.9415461],[144.9929671,-37.941607],[144.9928641,-37.9417153],[144.9928332,-37.9417726],[144.9928144,-37.9418331],[144.9928135,-37.9418932],[144.9928483,-37.9419397],[144.9928609,-37.9420391],[144.9928617,-37.9422892],[144.9930167,-37.9437088],[144.993072,-37.9439598],[144.9930911,-37.9440048],[144.9931279,-37.9440944],[144.9931522,-37.9441788],[144.9932182,-37.9442793],[144.9932878,-37.9443686],[144.993397,-37.9444507],[144.9935167,-37.9445245],[144.9936517,-37.9445799],[144.9937867,-37.9446324],[144.9942513,-37.9447797],[144.9947072,-37.9449309],[144.9949135,-37.9450159],[144.9950008,-37.9450625],[144.9950774,-37.9451147],[144.9951456,-37.9451961],[144.9952846,-37.9454226],[144.9954529,-37.9458002],[144.9957197,-37.9463742],[144.9957924,-37.9464715],[144.9958085,-37.9464901],[144.9957847,-37.9465455],[144.9957873,-37.9465798],[144.9958007,-37.9466062],[144.9958284,-37.9466267],[144.995819,-37.9466473],[144.9958271,-37.9466678],[144.9958587,-37.9466926],[144.9958962,-37.9466969],[144.9958912,-37.9467372],[144.995918,-37.9467415],[144.9959603,-37.946738],[144.995972,-37.9467494],[144.9960091,-37.9467987],[144.9960406,-37.9468098],[144.9960834,-37.9468128],[144.9961362,-37.9468076],[144.9961993,-37.9467903],[144.9962662,-37.9468006],[144.9962873,-37.9468415],[144.9962991,-37.9469123],[144.9963695,-37.9469978],[144.9964252,-37.9470094],[144.9965439,-37.9470359],[144.9966398,-37.9470912],[144.9967785,-37.9472151],[144.9968694,-37.9472718],[144.9969353,-37.9472923],[144.9969918,-37.9473006],[144.9970874,-37.9473141],[144.9971611,-37.9473311],[144.9972607,-37.9473648],[144.9983426,-37.9480125],[144.9984639,-37.9481354],[144.9985135,-37.9482191],[144.9985346,-37.9482838],[144.9985382,-37.9483743],[144.9985009,-37.94843],[144.9984613,-37.9484636],[144.9984628,-37.9484959],[144.9985419,-37.9485757],[144.9990633,-37.9489756],[144.9997992,-37.9494924],[145.0002649,-37.9499232],[145.0005519,-37.9500839],[145.0009945,-37.9505027],[145.0013057,-37.9508479],[145.001559,-37.9511289],[145.0016999,-37.9513243],[145.0017415,-37.9513561],[145.0017898,-37.9513646],[145.0018488,-37.9513942],[145.0019386,-37.9514513],[145.0019883,-37.9514809],[145.002054,-37.9515285],[145.0021438,-37.9516014],[145.002226,-37.95168],[145.0023021,-37.9517654],[145.0023691,-37.9518404],[145.0024201,-37.9519155]]},"properties":{"source_geometry_id":"osm:way/1181255714","geometry_status":"AVAILABLE_SOURCE_VERTICES","source_tags":{"natural":"coastline","note":"Basic shape only - needs finer detail"},"source_authority":["S022"],"selection":"Original segments with segment bbox intersecting plot extent; no synthetic clipping vertices"}},{"type":"Feature","geometry":{"type":"LineString","coordinates":[[144.9965906,-37.9447389],[144.9962305,-37.9448635],[144.9961781,-37.9448818],[144.9959973,-37.9449364],[144.9959657,-37.9449459],[144.9956364,-37.9449055],[144.9953991,-37.9448753],[144.9953742,-37.9448733],[144.9953519,-37.9448715],[144.995268,-37.9448581]]},"properties":{"source_geometry_id":"osm:way/1181255715","geometry_status":"AVAILABLE_SOURCE_VERTICES","source_tags":{"natural":"coastline","note":"Basic shape only - needs finer detail"},"source_authority":["S022"],"selection":"Original segments with segment bbox intersecting plot extent; no synthetic clipping vertices"}},{"type":"Feature","geometry":{"type":"LineString","coordinates":[[144.8082844,-37.8803654],[144.8083482,-37.8803292],[144.808423,-37.8802394],[144.8085257,-37.8801544],[144.8089894,-37.8798625],[144.8092217,-37.8796516],[144.8093643,-37.8795256],[144.8100084,-37.8789053],[144.8102035,-37.8787627],[144.8104755,-37.87853],[144.8106236,-37.8783711],[144.8107572,-37.8782011],[144.81081,-37.8781327],[144.8108983,-37.8780228],[144.8109994,-37.8779036],[144.8112417,-37.8777486],[144.811485,-37.8776069],[144.8116505,-37.8774952],[144.8116984,-37.8774417],[144.8117173,-37.877407],[144.8117173,-37.8773551],[144.8116974,-37.8772701],[144.8116725,-37.8771693],[144.8117014,-37.8770812],[144.8117682,-37.8769852],[144.8119586,-37.8767861],[144.812182,-37.8765964],[144.8126317,-37.8762399],[144.8127403,-37.8761439],[144.812848,-37.8760486],[144.8129836,-37.8759621],[144.8131222,-37.8758889],[144.8133037,-37.8758047],[144.8134323,-37.875774],[144.8137843,-37.8755127],[144.8140395,-37.875349],[144.8141422,-37.8752836],[144.8141512,-37.8752608],[144.8141691,-37.8752419],[144.814216,-37.8752167],[144.8142838,-37.8752041],[144.81455,-37.8750861],[144.8148012,-37.874955],[144.8148664,-37.8749339],[144.8148994,-37.874932],[144.8149497,-37.8749322],[144.8149747,-37.8749321],[144.815036,-37.8749239],[144.8151097,-37.874896],[144.8152767,-37.8747941],[144.8156434,-37.8745989],[144.8158615,-37.8745056],[144.8162309,-37.874347],[144.8165041,-37.8742331],[144.8167075,-37.8741702],[144.8167586,-37.874164],[144.8167798,-37.8741577],[144.8167976,-37.8741476],[144.8168137,-37.8740809],[144.8168293,-37.8740426],[144.8168599,-37.8739919],[144.8169161,-37.8739411],[144.8171151,-37.8738504],[144.8173696,-37.8737193],[144.8176191,-37.8735858],[144.817953,-37.8734229],[144.8182335,-37.8732893],[144.8186057,-37.8731196],[144.8187134,-37.873073],[144.8190159,-37.8729419],[144.8194333,-37.8727717],[144.8198954,-37.8725865],[144.8201397,-37.8725032],[144.8202116,-37.8724689],[144.8202593,-37.8724432],[144.8203093,-37.8724149],[144.8206368,-37.8722778],[144.8210008,-37.8721472],[144.8216048,-37.8719583],[144.8221888,-37.8717931],[144.8224576,-37.8717131],[144.8225065,-37.8716959],[144.8225672,-37.8716641],[144.8226707,-37.8716285],[144.822759,-37.8716045],[144.8230269,-37.8715338],[144.8234278,-37.8714486],[144.8238581,-37.8713525],[144.8241633,-37.8712921],[144.8243401,-37.8712743],[144.8244428,-37.8712772],[144.8245078,-37.8712895],[144.8245444,-37.8713046],[144.8245695,-37.8713502],[144.8246073,-37.8714126],[144.8246396,-37.8714399],[144.8246871,-37.8714462],[144.8247889,-37.871415],[144.8248997,-37.8713964],[144.8250918,-37.8713646],[144.8252262,-37.8713448],[144.8253952,-37.8713136],[144.8256534,-37.8712861],[144.8259,-37.8712552],[144.826115,-37.8712277],[144.8262893,-37.8712151],[144.8263727,-37.8712089],[144.826471,-37.8712062],[144.8265703,-37.8712058],[144.8266637,-37.8712078],[144.8267651,-37.871208],[144.8268379,-37.871204],[144.8269579,-37.871199],[144.8270384,-37.8711951],[144.8272826,-37.8711742],[144.8274735,-37.8711677],[144.8277858,-37.8711551],[144.8279838,-37.8711462],[144.8283085,-37.8711449],[144.8285588,-37.8711534],[144.829158,-37.8711733],[144.8292884,-37.8711918],[144.8297284,-37.8712029],[144.8299245,-37.871206],[144.83029,-37.8712129],[144.8307117,-37.8712065],[144.8311279,-37.8712089],[144.8319481,-37.8712329],[144.832349,-37.8712625],[144.8327899,-37.8712932],[144.8329432,-37.8713051],[144.8330575,-37.871324],[144.8332158,-37.8713498],[144.8335035,-37.8714043],[144.833903,-37.8714866],[144.834222,-37.871558],[144.8344544,-37.8716552],[144.8346592,-37.8716939],[144.8348606,-37.8717828],[144.8349519,-37.8718555],[144.8350468,-37.8718841],[144.8351008,-37.8718702],[144.8351564,-37.8718309],[144.83517,-37.8717762],[144.835185,-37.8717209],[144.8352032,-37.8716883],[144.8352232,-37.8716596],[144.8352619,-37.8716401],[144.8353078,-37.8716395],[144.8353439,-37.8716403],[144.8353991,-37.8716393],[144.8354544,-37.8716304],[144.8355448,-37.8716016],[144.8357898,-37.871561],[144.8358415,-37.8715519],[144.836139,-37.8714995],[144.8367471,-37.8714033],[144.83733,-37.8713151],[144.8377721,-37.871322],[144.8380821,-37.8713385],[144.8382402,-37.8713521],[144.8388437,-37.8713954],[144.8395811,-37.8714509],[144.8400974,-37.8714807],[144.8402017,-37.8714707],[144.8403351,-37.8714296],[144.8404158,-37.8713828],[144.8405377,-37.8712922],[144.8410869,-37.8707538],[144.8413745,-37.8704309],[144.8416117,-37.8701645],[144.8418783,-37.8699081],[144.8419868,-37.8699009],[144.8422318,-37.869896],[144.8424453,-37.8698692],[144.842564,-37.8698629],[144.8430634,-37.8696287],[144.8430675,-37.8695755],[144.8431528,-37.8695148],[144.8431654,-37.8694319],[144.8432031,-37.8693608],[144.8432172,-37.8692921],[144.8433056,-37.8692582],[144.8433665,-37.869252],[144.8439937,-37.8689238],[144.8441173,-37.8688627],[144.8442023,-37.8688479],[144.8442226,-37.8688175],[144.8444821,-37.8686431],[144.8446916,-37.8684687],[144.8448952,-37.8683418],[144.8450635,-37.8682467],[144.8452649,-37.8681719],[144.8454121,-37.8681828],[144.8454373,-37.8681801],[144.8454542,-37.8681782],[144.8456039,-37.8681687],[144.8457348,-37.8681156],[144.8458428,-37.8680456],[144.8460777,-37.8677956],[144.8463905,-37.8674578],[144.8464117,-37.8672515],[144.8467586,-37.8668642],[144.8468023,-37.8668249],[144.8468828,-37.8667694],[144.8469338,-37.8667461],[144.8469379,-37.8667021],[144.8469289,-37.8666525],[144.8469787,-37.8665864],[144.8470515,-37.8665108],[144.8471832,-37.8664349],[144.8472245,-37.8663904],[144.8473056,-37.8663717],[144.8473499,-37.8663237],[144.8474099,-37.866261],[144.847528,-37.8661789],[144.8476549,-37.8660907],[144.8476664,-37.8660827],[144.8477336,-37.866036],[144.8477212,-37.8660255],[144.8477515,-37.866003],[144.8477732,-37.8659859],[144.8479703,-37.8658495],[144.8479998,-37.8658287],[144.8480246,-37.8658112],[144.8480634,-37.8657838],[144.8480656,-37.8657823],[144.8480936,-37.8657626],[144.8481017,-37.8657569],[144.8481798,-37.8657019],[144.8482179,-37.865675],[144.8482432,-37.8656572],[144.8482492,-37.865653],[144.8482829,-37.8656292],[144.8483587,-37.8656946],[144.8485129,-37.8655873],[144.8486482,-37.8654932],[144.8487172,-37.8654452],[144.8487952,-37.8654006],[144.8486799,-37.8653062],[144.84898,-37.86517],[144.8493262,-37.8647734],[144.8497144,-37.8646393],[144.850367,-37.8643819],[144.8513778,-37.8638429],[144.8525751,-37.8635438],[144.8537654,-37.8633444],[144.8544365,-37.8632914],[144.8549251,-37.8633179],[144.8553942,-37.8633449],[144.8557708,-37.8633759],[144.8560239,-37.8634186],[144.8561992,-37.8634463],[144.8563151,-37.8634227],[144.8564227,-37.8633627],[144.8564309,-37.8633447],[144.8564403,-37.8633189],[144.8564389,-37.863281],[144.8564135,-37.8632124],[144.8564222,-37.8631737],[144.856438,-37.8631387],[144.8564934,-37.8630544],[144.8565472,-37.8629988],[144.8566232,-37.8629507],[144.8568242,-37.8627932],[144.8568519,-37.8627632],[144.8569049,-37.8627132],[144.8569405,-37.8626664],[144.8569825,-37.8626108],[144.8570497,-37.8625652],[144.8571036,-37.8625377],[144.8571795,-37.8625196],[144.8572658,-37.8624677],[144.8573315,-37.8623971],[144.857375,-37.8623765],[144.8574383,-37.8623565],[144.857508,-37.8623509],[144.8575546,-37.8623315],[144.8576211,-37.8622859],[144.8576757,-37.8622365],[144.8577509,-37.8621866],[144.8578459,-37.8621578],[144.8579512,-37.8621437],[144.8582724,-37.861986],[144.8584481,-37.8619148],[144.8584489,-37.8618854],[144.8584489,-37.8618529],[144.8584481,-37.8618286],[144.8584655,-37.8618029],[144.8584948,-37.8617811],[144.8585589,-37.8617605],[144.858589,-37.8617598],[144.858623,-37.8617654],[144.8586459,-37.8617386],[144.8586776,-37.8617248],[144.8586918,-37.8616892],[144.858676,-37.8616505],[144.8586776,-37.861623],[144.8586839,-37.8615799],[144.8587124,-37.8615474],[144.8587512,-37.8615305],[144.858805,-37.8615137],[144.858881,-37.8614962],[144.8589546,-37.8614699],[144.8589957,-37.8614643],[144.8590543,-37.8614499],[144.8591334,-37.8614418],[144.8592149,-37.8614556],[144.8592545,-37.8614799],[144.8592806,-37.8614818],[144.8593392,-37.861478],[144.8593803,-37.8614512],[144.8593827,-37.8613956],[144.8593938,-37.8613612],[144.8594231,-37.8613318],[144.8594864,-37.8613056],[144.8596027,-37.8613],[144.8597222,-37.8612769],[144.8597784,-37.861225],[144.8597879,-37.8611806],[144.8598066,-37.8611596],[144.8598291,-37.8611344],[144.8599493,-37.8610426],[144.8600214,-37.8609876],[144.860034,-37.8609532],[144.8600768,-37.8608832],[144.8600863,-37.8608114],[144.8601068,-37.8607514],[144.8601448,-37.8607214],[144.8602669,-37.8606505],[144.8603502,-37.8606349],[144.8605862,-37.8606095],[144.86066,-37.8606015],[144.8607447,-37.8605871],[144.8607613,-37.8605708],[144.860785,-37.8605052],[144.8607969,-37.8604434],[144.8607787,-37.8604184],[144.8607692,-37.8603872],[144.8607803,-37.8603478],[144.8608191,-37.8602797],[144.8608919,-37.8601922],[144.8609607,-37.8601404],[144.8610786,-37.8600904],[144.8612007,-37.8600951],[144.8613528,-37.8600134],[144.8613816,-37.8600428],[144.8614134,-37.8600752],[144.8614492,-37.8601253],[144.8614682,-37.8601521],[144.861506,-37.8601852],[144.8615479,-37.8601962],[144.8616107,-37.8602017],[144.8617055,-37.8602151],[144.8618771,-37.8601729],[144.8620133,-37.8601191],[144.8621399,-37.8601166],[144.8622459,-37.8601341],[144.8623266,-37.8601291],[144.8625039,-37.8601041],[144.8625925,-37.8600866],[144.8627207,-37.8601054],[144.8628822,-37.8601054],[144.8640344,-37.8599854],[144.864187,-37.8599847],[144.8650331,-37.859688],[144.8663843,-37.8592391],[144.8665917,-37.8591886],[144.8669424,-37.8591322]]},"properties":{"source_geometry_id":"osm:way/172793922","geometry_status":"AVAILABLE_SOURCE_VERTICES","source_tags":{"natural":"coastline","note":"Basic shape only - needs finer detail","source":"nearmap"},"source_authority":["S020","S021"],"selection":"Original segments with segment bbox intersecting plot extent; no synthetic clipping vertices"}},{"type":"Feature","geometry":{"type":"LineString","coordinates":[[144.8083575,-37.881641],[144.808579,-37.8810966],[144.8086899,-37.8808258],[144.8086648,-37.880677],[144.8082844,-37.8803654]]},"properties":{"source_geometry_id":"osm:way/172793930","geometry_status":"AVAILABLE_SOURCE_VERTICES","source_tags":{"natural":"coastline","note":"Basic shape only - needs finer detail","source":"nearmap"},"source_authority":["S020"],"selection":"Original segments with segment bbox intersecting plot extent; no synthetic clipping vertices"}},{"type":"Feature","geometry":{"type":"LineString","coordinates":[[144.8836144,-37.8673117],[144.8836532,-37.8673655],[144.883723,-37.8674208],[144.8837712,-37.8674608],[144.8838908,-37.8675182],[144.8839764,-37.8675465],[144.8841119,-37.8675719],[144.884189,-37.8675732],[144.8842262,-37.8674638],[144.8843889,-37.8676058],[144.8845697,-37.8677604],[144.8845772,-37.8675701],[144.8847931,-37.8676802],[144.8848883,-37.8677288],[144.8850191,-37.8677699],[144.8851059,-37.8677907],[144.8851457,-37.8677973],[144.8850682,-37.8682517],[144.887634,-37.8684415],[144.8880818,-37.8684632],[144.8881526,-37.8684571],[144.8881901,-37.8684475],[144.8882164,-37.8684353],[144.8882466,-37.8684214],[144.8884473,-37.8683193],[144.8886412,-37.8683441],[144.8891405,-37.8684078],[144.889712,-37.8684915],[144.8897553,-37.8684889],[144.8897684,-37.8684607],[144.889738,-37.8684264],[144.8895656,-37.8683853],[144.8891077,-37.8683154],[144.8891015,-37.8683032],[144.8890853,-37.8682124],[144.8890907,-37.8681465],[144.889107,-37.868084],[144.8891286,-37.8680241],[144.8891623,-37.8679514],[144.8892067,-37.8678889],[144.8892815,-37.8678101],[144.8893943,-37.8677014],[144.8895352,-37.867621],[144.8896534,-37.8675482],[144.8897738,-37.8674994],[144.8899039,-37.8674549],[144.8900806,-37.867413],[144.8902324,-37.8673839],[144.8903875,-37.867383],[144.8905631,-37.8673805],[144.8907583,-37.867383],[144.8909144,-37.8673907],[144.8910814,-37.8674019],[144.8912603,-37.8674215],[144.8914522,-37.8674481],[144.891591,-37.8674695],[144.891874,-37.86752],[144.8920941,-37.8675576],[144.8922491,-37.8675893],[144.8925646,-37.8676818],[144.8927327,-37.867746],[144.8928455,-37.8677887],[144.8930124,-37.8678615],[144.8932184,-37.8679685],[144.893354,-37.8680618],[144.893505,-37.8681691],[144.8936243,-37.8682326],[144.893753,-37.8683143],[144.8938311,-37.8683708],[144.8939243,-37.8684418],[144.8940024,-37.8685154],[144.8940739,-37.8685848],[144.8941693,-37.868744],[144.8942203,-37.868839],[144.894422,-37.8687518],[144.8950539,-37.8693311],[144.8953177,-37.8695425],[144.8953487,-37.869605],[144.8953642,-37.8696783],[144.8953917,-37.8697232],[144.8954528,-37.8697877],[144.8954993,-37.8698244],[144.895569,-37.8698876],[144.8956499,-37.8699616],[144.8956929,-37.8700051],[144.8957859,-37.8700567],[144.895878,-37.8700744],[144.8959941,-37.8700791],[144.8961034,-37.8700649],[144.8962015,-37.8700499],[144.8963004,-37.8700456],[144.8963843,-37.8700525],[144.8964713,-37.8700752],[144.8967977,-37.8702301],[144.8970804,-37.8703624],[144.8972036,-37.8704225],[144.8972721,-37.8704188],[144.8973539,-37.8704248],[144.8974156,-37.8704336],[144.8974786,-37.8704467],[144.8975664,-37.8704521],[144.8976485,-37.8704711],[144.8977437,-37.8704851],[144.8978193,-37.8705077],[144.8979387,-37.8705373],[144.8980299,-37.8705522],[144.898116,-37.870568],[144.8981814,-37.8705818],[144.8983249,-37.8706252],[144.8984037,-37.8706464],[144.898499,-37.8706829],[144.8985448,-37.8707162],[144.8985958,-37.8707575],[144.8986454,-37.8707904],[144.8987219,-37.870857],[144.8987447,-37.870911],[144.8987858,-37.8709528],[144.8988297,-37.8710085],[144.8988753,-37.8710418],[144.898964,-37.8710886],[144.8990432,-37.8711178],[144.8991025,-37.8711511],[144.8991697,-37.871198],[144.8991913,-37.8712488],[144.8992208,-37.8713377],[144.8992342,-37.8713917],[144.8992659,-37.8714335],[144.8993039,-37.87147],[144.8993897,-37.871524],[144.8994742,-37.8715706],[144.8995453,-37.8716076],[144.8996392,-37.8716574],[144.8997758,-37.8717353],[144.899855,-37.8717601],[144.8999096,-37.8717773],[144.9000121,-37.8717913],[144.9001118,-37.8718075],[144.900191,-37.871828],[144.9002648,-37.8718506],[144.9003399,-37.8718992],[144.9004164,-37.8719585],[144.9004643,-37.8720178],[144.9005216,-37.872062],[144.9006077,-37.8721202],[144.9010312,-37.8722561],[144.9012757,-37.8722831],[144.9014832,-37.8723138],[144.9015757,-37.8723339],[144.9016576,-37.872354],[144.9022512,-37.872542],[144.9029061,-37.8727107],[144.9029793,-37.8727155],[144.9030402,-37.872716],[144.9036902,-37.8726649],[144.9037769,-37.8726469],[144.9038463,-37.8726324],[144.9043808,-37.8724398],[144.9044654,-37.872409],[144.904524,-37.872379],[144.9048655,-37.8720735],[144.9049338,-37.8720007],[144.9049661,-37.8719517],[144.9050854,-37.8716373],[144.9050994,-37.8716111],[144.9051136,-37.8715886],[144.9052155,-37.8714097],[144.9052326,-37.8713873],[144.9052531,-37.8713726],[144.9054019,-37.8712858],[144.9055897,-37.8711904],[144.9056205,-37.8711768],[144.905819,-37.8711376],[144.9058453,-37.8711341],[144.9058727,-37.8711416],[144.9059226,-37.8711695],[144.9059561,-37.8711729],[144.9059983,-37.8711647],[144.9060112,-37.8711369],[144.906025,-37.8711049],[144.906058,-37.8710766],[144.9060859,-37.8710677],[144.9062384,-37.8710289],[144.906457,-37.8709799],[144.9065673,-37.8709767],[144.9066505,-37.8709735],[144.9067091,-37.8709861],[144.9067616,-37.8710003],[144.9067995,-37.8710058],[144.9068683,-37.8710119],[144.9069604,-37.8710166],[144.9070138,-37.871001],[144.9070628,-37.8709759],[144.9071196,-37.870965],[144.9072231,-37.8709671],[144.9072788,-37.8709664],[144.9073279,-37.8709575],[144.9073855,-37.8709229],[144.9074862,-37.8708882],[144.9075465,-37.8708787],[144.9076033,-37.8708624],[144.9076764,-37.8708359],[144.9077315,-37.8708135],[144.9077814,-37.8707897],[144.907827,-37.8707524],[144.9078898,-37.8707272],[144.9079578,-37.870713],[144.9079845,-37.8706967],[144.9080193,-37.8706644],[144.9080384,-37.8706472],[144.9080507,-37.8706213],[144.9080653,-37.8705903],[144.9080761,-37.8705522],[144.9081013,-37.8705138],[144.9082611,-37.8703203],[144.9082912,-37.8702917],[144.9083269,-37.8702695],[144.9087494,-37.8700482],[144.9090166,-37.8699279],[144.9091299,-37.8698492],[144.9091935,-37.8698206],[144.9092543,-37.8698023],[144.9096183,-37.8695883],[144.9103323,-37.8690966],[144.9103789,-37.8690624],[144.9104364,-37.8690247],[144.9104776,-37.8690033],[144.9105134,-37.8689939],[144.9105405,-37.8689853],[144.91056,-37.8689802],[144.9105828,-37.8689742],[144.910612,-37.8689443],[144.9106554,-37.8689117],[144.9107248,-37.8688475],[144.9108039,-37.8688099],[144.9108256,-37.8687988],[144.910843,-37.8687397],[144.9109948,-37.8686147],[144.9111498,-37.8685163],[144.9113255,-37.8684033],[144.9114675,-37.8683383],[144.9117136,-37.8682407],[144.9122805,-37.8679337],[144.9126175,-37.8677485],[144.9127231,-37.8676972],[144.9127901,-37.867663],[144.9128478,-37.8676313],[144.9128857,-37.8676073],[144.9129313,-37.8675825],[144.9130017,-37.8675474],[144.9130711,-37.8675089],[144.9131123,-37.8674857],[144.9131503,-37.8674447],[144.9132121,-37.8673779],[144.9132424,-37.8673154],[144.9132609,-37.867217],[144.9132717,-37.867134],[144.9132815,-37.8670706],[144.9132858,-37.8669884],[144.9133259,-37.8669397],[144.9133662,-37.8669094],[144.913402,-37.8668738],[144.9134485,-37.8668287],[144.9134702,-37.8668104],[144.9145339,-37.8661237],[144.91552,-37.86554],[144.9155892,-37.8654974],[144.9155217,-37.8654217]]},"properties":{"source_geometry_id":"osm:way/203576322","geometry_status":"AVAILABLE_SOURCE_VERTICES","source_tags":{"natural":"coastline","note":"Basic shape only - needs finer detail","source":"nearmap"},"source_authority":["S021"],"selection":"Original segments with segment bbox intersecting plot extent; no synthetic clipping vertices"}},{"type":"Feature","geometry":{"type":"LineString","coordinates":[[144.8837613,-37.8669998],[144.8836144,-37.8673117]]},"properties":{"source_geometry_id":"osm:way/203576324","geometry_status":"AVAILABLE_SOURCE_VERTICES","source_tags":{"natural":"coastline","note":"Basic shape only - needs finer detail","source":"nearmap"},"source_authority":["S021"],"selection":"Original segments with segment bbox intersecting plot extent; no synthetic clipping vertices"}},{"type":"Feature","geometry":{"type":"LineString","coordinates":[[144.8737405,-37.8610585],[144.8739568,-37.8612025],[144.8742156,-37.8613747],[144.8745458,-37.8616356],[144.8746504,-37.86173],[144.8746757,-37.8618613],[144.8746719,-37.8620609],[144.8746007,-37.8622927],[144.874535,-37.8625347],[144.8744648,-37.8627269],[144.8743922,-37.8628521],[144.8742673,-37.8629732],[144.8742129,-37.8632142],[144.8742004,-37.8633372],[144.8743703,-37.8635567],[144.8752645,-37.8643418],[144.8760462,-37.8649648],[144.8764877,-37.8654704],[144.8768787,-37.8661333],[144.8773575,-37.8669139],[144.8774488,-37.8670962],[144.8774592,-37.8671169],[144.8775234,-37.8672522],[144.8775874,-37.8672644],[144.8776684,-37.8671951],[144.8776821,-37.8670503],[144.8777104,-37.8669504],[144.8777835,-37.866873],[144.877922,-37.8668384],[144.8780584,-37.8668381],[144.8781507,-37.8669036],[144.8782236,-37.8669702],[144.8783309,-37.8670779],[144.8783739,-37.867211],[144.8782935,-37.8673712],[144.8781595,-37.8674715],[144.8780983,-37.8675484],[144.8780939,-37.8676471],[144.8782725,-37.8677683],[144.8784289,-37.8677523],[144.8784731,-37.8679693],[144.8786307,-37.8680649],[144.8788349,-37.8680684],[144.8790397,-37.86815],[144.8791211,-37.8680677],[144.8792825,-37.8679741],[144.8793537,-37.8678349],[144.879467,-37.867678],[144.8795711,-37.8675637],[144.8797243,-37.8674223],[144.8797416,-37.8673374],[144.8796741,-37.8672786],[144.8794388,-37.8671349],[144.8793595,-37.8669441],[144.879281,-37.8668485],[144.8793128,-37.8667593],[144.8793757,-37.8666745],[144.879395,-37.8665962],[144.87939,-37.8665379],[144.8793901,-37.8664929],[144.8794264,-37.8664598],[144.8795156,-37.8664051],[144.8796183,-37.866342],[144.8798205,-37.8662352],[144.88001,-37.8662156],[144.8801732,-37.8662157],[144.8803099,-37.8662416],[144.8804134,-37.866224],[144.8805515,-37.8661992],[144.8806764,-37.8661475],[144.8807592,-37.8660879],[144.8807895,-37.8660413],[144.880772,-37.8660051],[144.8807369,-37.8659277],[144.8807539,-37.8658568],[144.8808457,-37.8657733],[144.8809884,-37.8657427],[144.8812343,-37.8657799],[144.8816394,-37.8659512],[144.8818671,-37.8659991],[144.8821268,-37.8660212],[144.8824729,-37.8659597],[144.8828367,-37.8658913],[144.8835498,-37.8659746],[144.8837126,-37.866016],[144.8838258,-37.8660903],[144.8839509,-37.8662705],[144.8839079,-37.8664325],[144.8838219,-37.8666168],[144.883814,-37.8667902],[144.8837613,-37.8669998]]},"properties":{"source_geometry_id":"osm:way/203576325","geometry_status":"AVAILABLE_SOURCE_VERTICES","source_tags":{"natural":"coastline","note":"Basic shape only - needs finer detail","source":"nearmap"},"source_authority":["S021"],"selection":"Original segments with segment bbox intersecting plot extent; no synthetic clipping vertices"}},{"type":"Feature","geometry":{"type":"LineString","coordinates":[[144.8669424,-37.8591322],[144.8676727,-37.8590833],[144.8682244,-37.8590816],[144.8683865,-37.8591058],[144.8685174,-37.8591232],[144.8696282,-37.8592705]]},"properties":{"source_geometry_id":"osm:way/203576327","geometry_status":"AVAILABLE_SOURCE_VERTICES","source_tags":{"natural":"coastline","note":"Basic shape only - needs finer detail","source":"nearmap"},"source_authority":["S021"],"selection":"Original segments with segment bbox intersecting plot extent; no synthetic clipping vertices"}},{"type":"Feature","geometry":{"type":"LineString","coordinates":[[144.8696282,-37.8592705],[144.8698653,-37.8593439],[144.8699756,-37.8593744],[144.870036,-37.8593584],[144.8701178,-37.8593442],[144.8701871,-37.8593419],[144.8702756,-37.8593764],[144.8703686,-37.8594216],[144.8704899,-37.8594431],[144.8706493,-37.8594559],[144.8708298,-37.8594508],[144.8709679,-37.8594456],[144.871129,-37.8594967],[144.8713302,-37.8595649],[144.8715098,-37.8596257],[144.8719415,-37.8597964],[144.8723731,-37.8599838],[144.8726602,-37.8601307],[144.8733748,-37.860537],[144.8734927,-37.8606369],[144.8735518,-37.8607196],[144.8735436,-37.860819],[144.8735487,-37.8608992],[144.8735515,-37.8609423],[144.8736348,-37.8610088],[144.8737405,-37.8610585]]},"properties":{"source_geometry_id":"osm:way/203576328","geometry_status":"AVAILABLE_SOURCE_VERTICES","source_tags":{"natural":"coastline","note":"Basic shape only - needs finer detail","source":"nearmap"},"source_authority":["S021"],"selection":"Original segments with segment bbox intersecting plot extent; no synthetic clipping vertices"}},{"type":"Feature","geometry":{"type":"LineString","coordinates":[[144.7336815,-37.9439867],[144.7358015,-37.943012],[144.7391489,-37.941753],[144.7402405,-37.9414281],[144.7402601,-37.941416],[144.7403414,-37.9414311],[144.7406312,-37.9413791],[144.7410169,-37.9412833],[144.7410702,-37.9413401],[144.741154,-37.9413626],[144.7412172,-37.941299],[144.7412492,-37.9412599],[144.7413542,-37.9412384],[144.7413956,-37.9411874],[144.7414264,-37.9411511],[144.7414094,-37.9410978],[144.7413579,-37.9410139],[144.7412815,-37.9408847],[144.7412093,-37.9407686],[144.7412217,-37.9407265],[144.7412532,-37.9406601],[144.7413178,-37.9405418],[144.7415136,-37.9404163],[144.7416987,-37.940341],[144.7421458,-37.9401668],[144.7422878,-37.9401006],[144.7425133,-37.9400302],[144.742752,-37.9399709],[144.7433767,-37.9398285],[144.7435934,-37.93978],[144.7436479,-37.9397437],[144.7437141,-37.9397152],[144.7438809,-37.9396844],[144.744376,-37.9395973],[144.7450328,-37.939486],[144.7451797,-37.9394643],[144.745717,-37.9393891],[144.7460024,-37.9393505],[144.7475711,-37.9392154],[144.7480247,-37.9392003],[144.7489672,-37.9391643],[144.7492382,-37.9391696],[144.7497179,-37.939179],[144.749984,-37.9391988],[144.750049,-37.9392766],[144.7500714,-37.9392995],[144.7501029,-37.9393134],[144.750135,-37.9393194],[144.7501604,-37.9393178],[144.7501852,-37.9393077],[144.7502022,-37.939261],[144.7502078,-37.9392102],[144.7501746,-37.9391464],[144.7501676,-37.9390996],[144.7501923,-37.9390622],[144.7502582,-37.9390384],[144.7503977,-37.9390115],[144.750547,-37.9389977],[144.7507076,-37.9390068],[144.7513391,-37.9391192],[144.7513525,-37.9393049],[144.751375,-37.9393148],[144.7513999,-37.9393039],[144.7514207,-37.9391337],[144.7514645,-37.9391164],[144.751589,-37.9391283],[144.752377,-37.9392814],[144.7529868,-37.9392495],[144.7534798,-37.9392065],[144.7542768,-37.9390621],[144.7543767,-37.9390297],[144.7544613,-37.9389396],[144.7545382,-37.9388969],[144.7545993,-37.938884],[144.7549963,-37.9387503],[144.7577741,-37.9381789],[144.759889,-37.9376028],[144.7602863,-37.9376166],[144.760731,-37.9375279],[144.7609621,-37.9375123],[144.7611355,-37.9374508],[144.7613951,-37.9371692],[144.7622045,-37.9365828],[144.7643311,-37.9350347],[144.7660237,-37.9337034],[144.7670409,-37.9329649],[144.7687991,-37.9317394],[144.7692068,-37.9314973],[144.7740991,-37.9292159],[144.7742968,-37.9291605],[144.7784507,-37.9279972],[144.7802719,-37.9278431],[144.7824505,-37.9276587],[144.7851182,-37.9277821],[144.7863737,-37.9279883],[144.787264,-37.9283585],[144.7876964,-37.9283861],[144.7884916,-37.9281564],[144.7892802,-37.9277675],[144.7899294,-37.9277772],[144.7903898,-37.9280434],[144.790703,-37.9283147],[144.7909608,-37.9283311],[144.7917351,-37.9281406],[144.792606,-37.9279297],[144.7932913,-37.9278467],[144.7941168,-37.9274111],[144.7945142,-37.9269305],[144.7950099,-37.9262102],[144.7956405,-37.9254909],[144.7957295,-37.9250479],[144.7955842,-37.9246721],[144.7956255,-37.9242397],[144.7969988,-37.9234949],[144.7988699,-37.9233392],[144.7991617,-37.923109],[144.7988613,-37.9218361],[144.7981317,-37.920658],[144.797385,-37.9183829],[144.7974813,-37.9181398],[144.7978141,-37.9172996],[144.797385,-37.9151801],[144.7967155,-37.9133045],[144.796731,-37.9129833],[144.796767,-37.9122345],[144.7975567,-37.9094649],[144.7969816,-37.909194],[144.7970245,-37.9086997],[144.7969668,-37.9086246],[144.7968528,-37.9084762],[144.7975223,-37.9070405],[144.797694,-37.9064446],[144.7995823,-37.902415],[144.8009041,-37.8988526],[144.8010898,-37.8983441],[144.8011786,-37.8981009],[144.8016164,-37.896902],[144.802449,-37.8962111],[144.8031871,-37.8946804],[144.8058822,-37.8917136],[144.8081997,-37.88916],[144.80842,-37.88866],[144.80815,-37.88758],[144.8074498,-37.887446],[144.8075613,-37.8843638],[144.8083338,-37.8819792],[144.8084064,-37.8816993],[144.8083575,-37.881641]]},"properties":{"source_geometry_id":"osm:way/279954595","geometry_status":"AVAILABLE_SOURCE_VERTICES","source_tags":{"natural":"coastline","note":"Basic shape only - needs finer detail","source":"nearmap"},"source_authority":["S018","S019","S020"],"selection":"Original segments with segment bbox intersecting plot extent; no synthetic clipping vertices"}},{"type":"Feature","geometry":{"type":"LineString","coordinates":[[144.9850519,-37.891248],[144.9851019,-37.8913561],[144.9848313,-37.8914557],[144.9851422,-37.8918293],[144.9853313,-37.8920144],[144.9855146,-37.8921994],[144.9857316,-37.8924262],[144.9857523,-37.8925223],[144.985819,-37.8928319],[144.9858596,-37.8930459],[144.9858784,-37.8931297],[144.9858883,-37.8931667],[144.9858904,-37.8931873],[144.9858849,-37.893198],[144.985878,-37.8932069],[144.9858472,-37.8932155],[144.985783,-37.8931692],[144.9857425,-37.8931485],[144.9856993,-37.8931362],[144.9856688,-37.8931349],[144.9856567,-37.8931376],[144.9856466,-37.8931427],[144.9856462,-37.8931514],[144.9856471,-37.8931622],[144.9856493,-37.8931738],[144.9856551,-37.8931802],[144.9856764,-37.8931945],[144.9857125,-37.8932173],[144.9857848,-37.8932433],[144.9858579,-37.8932635],[144.9859249,-37.8933809],[144.9859244,-37.8934025],[144.985914,-37.8934222],[144.9858968,-37.8934292],[144.9858813,-37.893819],[144.985886,-37.8939815],[144.9858494,-37.8942052],[144.9858545,-37.8948981],[144.9858363,-37.8955176],[144.9858376,-37.8961139],[144.9858405,-37.8962712],[144.9858381,-37.8964955],[144.9857785,-37.8968378],[144.9857258,-37.8970307],[144.9857152,-37.8970942],[144.9856737,-37.8971961],[144.9856255,-37.8972882],[144.9855649,-37.8974069],[144.9855373,-37.8974507],[144.985492,-37.8975126],[144.9854545,-37.8975625],[144.9854008,-37.8976217],[144.9853213,-37.8977018],[144.9852213,-37.8977904],[144.9851581,-37.8978511],[144.9850648,-37.8979341],[144.9850397,-37.8979602],[144.9850095,-37.8979948],[144.9849501,-37.8980687],[144.9848501,-37.8982446],[144.9847799,-37.8983377],[144.9846274,-37.8985865],[144.9845312,-37.8987653],[144.9844995,-37.8988188],[144.9844739,-37.8988587],[144.9844373,-37.8989039],[144.9844079,-37.8989397],[144.9843741,-37.8989797],[144.9843427,-37.8990117],[144.9843185,-37.8990312],[144.984272,-37.8990652],[144.9841945,-37.8991091],[144.9841225,-37.8991475],[144.9840616,-37.8991845],[144.9840117,-37.8992167],[144.9839582,-37.8992571],[144.9839511,-37.899276],[144.9839579,-37.8992949],[144.9839715,-37.8993181],[144.9840864,-37.8993718],[144.9841716,-37.8995603],[144.9841714,-37.899588],[144.9841665,-37.8996157],[144.9840706,-37.8998082],[144.9839806,-37.8999881],[144.9838344,-37.9002521],[144.983869,-37.9002685],[144.9838759,-37.9002843],[144.9838821,-37.9003019],[144.9838998,-37.9003201],[144.9839267,-37.9003444],[144.9839297,-37.9003539],[144.9839329,-37.9003645],[144.9839306,-37.900376],[144.9839252,-37.9003894],[144.9839167,-37.9004009],[144.9839044,-37.90041],[144.9838206,-37.9004462],[144.9837689,-37.9004683],[144.983729,-37.9004614],[144.9836445,-37.9006234],[144.9835838,-37.900741],[144.9835286,-37.9008412],[144.9835003,-37.9008918],[144.9834696,-37.9009391],[144.9834418,-37.9009816],[144.9834208,-37.9010109],[144.9834083,-37.9010303],[144.9833957,-37.9010497],[144.9833876,-37.9010768],[144.983383,-37.9011151],[144.9833786,-37.901177],[144.9833795,-37.9012732],[144.9833931,-37.9017783],[144.9833999,-37.9018254],[144.9834416,-37.9018584],[144.9834525,-37.9018707],[144.9834611,-37.9018741],[144.98346,-37.901884],[144.9834624,-37.9018945],[144.9834654,-37.9019277],[144.9834694,-37.9019553],[144.9834865,-37.9020282],[144.9835004,-37.9020641],[144.9835055,-37.902077],[144.9835137,-37.9020978],[144.9835527,-37.9021775],[144.9835522,-37.9022427],[144.9835412,-37.9022637],[144.9835239,-37.9022903],[144.9834999,-37.9023091],[144.983468,-37.9023258],[144.9834709,-37.9023564],[144.9835133,-37.9023848],[144.9835633,-37.9024307],[144.9836239,-37.9025015],[144.9837273,-37.9026814],[144.9837622,-37.9027585],[144.9837984,-37.9027979],[144.9838088,-37.9028144],[144.9838049,-37.9028449],[144.9837203,-37.9028696],[144.9837628,-37.9028732],[144.9837969,-37.9028672],[144.9838101,-37.9028704],[144.9838202,-37.9028732],[144.983848,-37.9029488],[144.9838573,-37.9029674],[144.9838797,-37.9029726],[144.9838852,-37.9029666],[144.9840143,-37.9032726],[144.9840369,-37.9033257],[144.9840234,-37.9033834],[144.9840596,-37.9034428],[144.9840666,-37.9034939],[144.9840853,-37.9036589],[144.9840795,-37.9036749],[144.9840639,-37.9037184],[144.9840522,-37.9038884],[144.9840475,-37.9040316],[144.9840832,-37.9041166],[144.984118,-37.9043622],[144.9841713,-37.9044878],[144.9841884,-37.9046514],[144.9842434,-37.9048365],[144.9842673,-37.9048966],[144.9842903,-37.9049564],[144.9843115,-37.9050058],[144.9843188,-37.9050552],[144.9842892,-37.9051893],[144.984208,-37.9053409],[144.9838862,-37.9057364],[144.9835782,-37.9059922],[144.9833026,-37.9061746],[144.9828465,-37.9064503],[144.9827452,-37.9064906],[144.9825446,-37.9065803],[144.9824148,-37.9066979],[144.9823854,-37.9068294],[144.9823917,-37.9068678],[144.9824561,-37.9068619],[144.9824934,-37.9068073],[144.9825518,-37.9067427],[144.9827818,-37.906587],[144.9830858,-37.906446],[144.9836624,-37.9065285],[144.9838072,-37.9065941],[144.9839199,-37.906613],[144.9840454,-37.906664],[144.9842217,-37.9067035],[144.984415,-37.9067354],[144.9845972,-37.9067825],[144.9848637,-37.9068735],[144.9848684,-37.9069053],[144.9848777,-37.9069238],[144.9848912,-37.9069353],[144.9849053,-37.9069512],[144.9849227,-37.9069666],[144.9849368,-37.9069793],[144.9849864,-37.9070063],[144.9850074,-37.9070173],[144.9850501,-37.9070396],[144.9850776,-37.9070518],[144.9850991,-37.9070629],[144.9851152,-37.9070767],[144.985144,-37.9071105],[144.9851527,-37.907156],[144.9851601,-37.9072264],[144.9851715,-37.9072528],[144.9851735,-37.9072766],[144.9851755,-37.9072994],[144.9851789,-37.9073232],[144.9851763,-37.9073374],[144.9851694,-37.9073751],[144.9851635,-37.9074075],[144.9851586,-37.9074342],[144.9851534,-37.9074629],[144.9851487,-37.9074872],[144.9851447,-37.9075003],[144.9851394,-37.9075176],[144.9851292,-37.9075512],[144.9851331,-37.9075893],[144.9851518,-37.9076202],[144.9852661,-37.9077369],[144.9853063,-37.9078638],[144.9853242,-37.9080059],[144.9853274,-37.9080144],[144.9853354,-37.9080184],[144.9853421,-37.908021],[144.9853512,-37.9080226],[144.9853629,-37.9080221],[144.9853604,-37.9080693],[144.9853764,-37.9081204],[144.9853738,-37.9081603],[144.9853645,-37.9081831],[144.9853539,-37.9082088],[144.9853383,-37.9082285],[144.9853086,-37.9082659],[144.9852691,-37.9082959],[144.9852345,-37.9083132],[144.9852102,-37.908337],[144.9851374,-37.9083259],[144.9851439,-37.9083036],[144.9851375,-37.9082865],[144.9851186,-37.9082765],[144.9850972,-37.9082737],[144.9850757,-37.9082765],[144.9850596,-37.9083146],[144.9850692,-37.9083909],[144.9850936,-37.9084541],[144.9851431,-37.908538],[144.9851065,-37.9087807],[144.9850542,-37.9087692],[144.9849674,-37.9087607],[144.9849443,-37.908772],[144.9849324,-37.9087884],[144.9849469,-37.9088084],[144.9849818,-37.9088289],[144.9850729,-37.9090797],[144.9851399,-37.9093908],[144.9850766,-37.9096016],[144.985053,-37.9096309],[144.9850323,-37.9096534],[144.985005,-37.9096654],[144.9849333,-37.9096318],[144.9848993,-37.9096355],[144.9848795,-37.9096552],[144.9848766,-37.9096819],[144.9848843,-37.9096951],[144.9849041,-37.9097441],[144.984908,-37.9097775],[144.9849375,-37.9099114],[144.9849696,-37.9101346],[144.9849898,-37.9102976],[144.9849902,-37.9103305],[144.9849914,-37.910446],[144.9850137,-37.9105598],[144.9851915,-37.9108037],[144.9850568,-37.9113779],[144.9849993,-37.9114859],[144.9849597,-37.911531],[144.9848402,-37.9115987],[144.9848068,-37.9116042],[144.9847616,-37.9116345],[144.984756,-37.911688],[144.9847764,-37.9117223],[144.9847676,-37.9118254],[144.9847565,-37.9119186],[144.9848544,-37.912076],[144.9849033,-37.912203],[144.9849165,-37.9122666],[144.9848873,-37.9123239],[144.9849083,-37.9123707],[144.9850374,-37.9125626],[144.9850362,-37.9126801],[144.9850502,-37.9127287],[144.9850991,-37.9128233],[144.9851188,-37.9128857],[144.9851375,-37.9129297],[144.98517,-37.9129793],[144.9852631,-37.9129967],[144.9844828,-37.9135437],[144.9844345,-37.9136136],[144.9844721,-37.9136665],[144.9848415,-37.9137648],[144.9852145,-37.9141218],[144.9854232,-37.9144744],[144.9856541,-37.9149377],[144.9857686,-37.9153982],[144.9858148,-37.9158047],[144.9858926,-37.9161607],[144.9860031,-37.9165674],[144.9860694,-37.9170245],[144.9860357,-37.9172576],[144.9860171,-37.9174631],[144.9862439,-37.9177083],[144.9864464,-37.9179042],[144.9864956,-37.9179466],[144.9866288,-37.9181087],[144.9867155,-37.9182378],[144.9869351,-37.918577],[144.987165,-37.9189731],[144.9871921,-37.9191138],[144.9871989,-37.9192321],[144.9872401,-37.9193883],[144.9873457,-37.9196991],[144.9873816,-37.9201088],[144.9874078,-37.9205978],[144.987391,-37.920918],[144.9873435,-37.9210809],[144.9872329,-37.9213403],[144.9870887,-37.9216387],[144.9869198,-37.921924],[144.9867163,-37.9220331],[144.9866395,-37.9220542],[144.9865592,-37.9220827],[144.9864431,-37.9221818],[144.9864236,-37.9222507],[144.9862037,-37.9222927],[144.9861436,-37.9223942],[144.9861436,-37.9225297],[144.9864869,-37.9230239],[144.9865899,-37.923376],[144.9865965,-37.9235346],[144.9865546,-37.9237002],[144.986409,-37.9239411],[144.9861407,-37.9239087],[144.9861183,-37.9238844],[144.9861015,-37.9238775],[144.986062,-37.9238659],[144.986005,-37.9238542],[144.9859755,-37.9238521],[144.985946,-37.9238548],[144.9859259,-37.9238664],[144.9858876,-37.9238913],[144.9858575,-37.9239352],[144.9858373,-37.9239939],[144.9858199,-37.9241526],[144.9857924,-37.9243218],[144.9857381,-37.9246334],[144.9857079,-37.9249365],[144.9856818,-37.9251258],[144.9856503,-37.9253088],[144.9855884,-37.9257414],[144.9855557,-37.9259631],[144.9855249,-37.9261795],[144.9855229,-37.9262027],[144.9855229,-37.9262287],[144.9855322,-37.9262445],[144.9855416,-37.9262657],[144.985545,-37.9262858],[144.9855383,-37.9263069],[144.9855195,-37.926326],[144.9855108,-37.9263498],[144.9855054,-37.926399],[144.9855128,-37.9264476],[144.9855262,-37.9264751],[144.9855584,-37.9264709],[144.9855785,-37.9264598],[144.9856116,-37.9264418],[144.9857686,-37.92642],[144.9858588,-37.9264117],[144.9859654,-37.9264302],[144.9861035,-37.9264667],[144.9863114,-37.9265476],[144.9866152,-37.9266878],[144.9868257,-37.9268047],[144.9869397,-37.9268644],[144.9870691,-37.9269459],[144.9877189,-37.9273955],[144.9882638,-37.9278098],[144.9888733,-37.9283284],[144.9894439,-37.9288674],[144.9900255,-37.9294188],[144.990101,-37.929491],[144.9901673,-37.9295632],[144.990227,-37.9296686],[144.9902566,-37.9297954],[144.9902811,-37.9299164],[144.9901684,-37.9299862],[144.9903671,-37.9300693],[144.9905651,-37.9302234],[144.9907445,-37.9303638],[144.9909254,-37.9305165],[144.991192,-37.9308362],[144.991291,-37.9309667],[144.9913378,-37.9310679],[144.9913505,-37.9311249],[144.9913417,-37.9311987],[144.9913168,-37.9312955],[144.9913971,-37.9313027],[144.991508,-37.9313611],[144.9925866,-37.9322626],[144.9926468,-37.9323276],[144.9926745,-37.9323798],[144.9926867,-37.9324109],[144.9926327,-37.9324844],[144.9922108,-37.9330924],[144.9923305,-37.9331393],[144.9927831,-37.9332493],[144.9934131,-37.9336171],[144.993912,-37.9341261],[144.994287,-37.9345096],[144.9944464,-37.9346931],[144.9945844,-37.9348619],[144.9946436,-37.9349856],[144.9946658,-37.9351178],[144.9948412,-37.9351116],[144.9949237,-37.9351111],[144.994984,-37.935118],[144.995041,-37.9351501],[144.9952064,-37.935282],[144.9956221,-37.9357389],[144.9964047,-37.9366636],[144.9968093,-37.9373379],[144.9971288,-37.9379518],[144.9973991,-37.9386711],[144.9976214,-37.939205],[144.9977181,-37.9395206],[144.9976515,-37.939649],[144.9973984,-37.9396983],[144.9973874,-37.9397405],[144.997426,-37.939768],[144.9977254,-37.9396929],[144.9983821,-37.9395312],[144.9984875,-37.9396103],[144.998582,-37.9397343],[144.9986481,-37.939901],[144.9986916,-37.9399964],[144.9987263,-37.9401509],[144.998712,-37.940252],[144.9987211,-37.9403493],[144.9987395,-37.9405064],[144.99872,-37.9409592],[144.9986618,-37.9412122],[144.998593,-37.9413693],[144.9985455,-37.9414585],[144.998478,-37.9415464],[144.9984503,-37.9415685],[144.9983507,-37.9415308],[144.9980771,-37.941461],[144.9979806,-37.9414377],[144.9979457,-37.9414483],[144.9979323,-37.94148],[144.9979618,-37.9415117],[144.9980476,-37.9415435],[144.9989462,-37.941791],[144.9992546,-37.941865],[144.9992706,-37.9419111],[144.9992841,-37.9420301],[144.9990929,-37.9425464],[144.998667,-37.9431393],[144.9983143,-37.9435359],[144.9978484,-37.9438644],[144.9976995,-37.9439654],[144.9974982,-37.9440938],[144.9974203,-37.944159],[144.997354,-37.944292],[144.9973365,-37.9443828],[144.997269,-37.9444609],[144.997,-37.9445516],[144.9967697,-37.9446656],[144.9966816,-37.9447074],[144.9965906,-37.9447389]]},"properties":{"source_geometry_id":"osm:way/355754220","geometry_status":"AVAILABLE_SOURCE_VERTICES","source_tags":{"natural":"coastline","note":"Basic shape only - needs finer detail"},"source_authority":["S022"],"selection":"Original segments with segment bbox intersecting plot extent; no synthetic clipping vertices"}},{"type":"Feature","geometry":{"type":"LineString","coordinates":[[144.9155217,-37.8654217],[144.915464,-37.8653514],[144.9154511,-37.8653369],[144.9153897,-37.8653658],[144.9153658,-37.8653368],[144.9150818,-37.8649923],[144.9137253,-37.8649598],[144.913501,-37.8648804],[144.9134544,-37.8648586],[144.913413,-37.8648422],[144.91327,-37.86479],[144.91356,-37.86441],[144.9135947,-37.864275],[144.913542,-37.864122],[144.9131806,-37.8638171],[144.9131173,-37.8637901],[144.9131491,-37.8637088],[144.9131444,-37.8636472],[144.9129929,-37.8635194],[144.9129487,-37.8635515],[144.9127665,-37.8634056],[144.9128036,-37.8633741],[144.912602,-37.8632122],[144.9126008,-37.8631157],[144.9126801,-37.86305],[144.9125964,-37.8629731],[144.9125792,-37.862959],[144.9122911,-37.862723],[144.9123127,-37.8627014],[144.9115379,-37.8620766],[144.9113391,-37.8620136],[144.9113234,-37.8620296],[144.9109457,-37.8619066],[144.910827,-37.8618695],[144.9108135,-37.8618948],[144.9103971,-37.8617623],[144.9103198,-37.8617372],[144.9099253,-37.8616113],[144.9097093,-37.8615424],[144.9095579,-37.8618205],[144.9094094,-37.8617755],[144.9093794,-37.8617657],[144.9092027,-37.8617146],[144.9090793,-37.8616771],[144.9090545,-37.8616696],[144.9090521,-37.8616738],[144.9086808,-37.8623937],[144.9086148,-37.8625216],[144.9081821,-37.8623778],[144.9083215,-37.8621094],[144.9082928,-37.8620992],[144.9082654,-37.8620895],[144.9078971,-37.8619644],[144.9078174,-37.8619371],[144.907761,-37.8619178],[144.9075541,-37.8618471],[144.9070106,-37.8622235],[144.9063139,-37.8619844],[144.9062648,-37.8619691],[144.9061207,-37.8622808],[144.9060459,-37.8622585],[144.9056809,-37.8621494],[144.9053915,-37.862063],[144.9053864,-37.8620755],[144.9053766,-37.8620996],[144.9052555,-37.8620686],[144.9052481,-37.8620676],[144.905082,-37.8620199],[144.9050596,-37.8620735],[144.9048078,-37.8619799],[144.9045688,-37.8618597],[144.9044788,-37.861795],[144.9044553,-37.8617765],[144.9043898,-37.861727],[144.9042267,-37.8615866],[144.903919,-37.8617521],[144.9037848,-37.861626],[144.9037752,-37.8616122],[144.9035944,-37.8614513],[144.9035221,-37.8612862],[144.9035183,-37.861269],[144.9034603,-37.8611358],[144.904043,-37.8610323],[144.9040161,-37.8609376],[144.9039981,-37.8608876],[144.9039293,-37.8606703],[144.9039166,-37.8606298],[144.9039023,-37.8605925],[144.9038965,-37.8605754],[144.9038737,-37.8605285],[144.9038662,-37.8605092],[144.9037402,-37.860186],[144.9037321,-37.8601639],[144.9035354,-37.8602168],[144.9034914,-37.8600582],[144.9035189,-37.8600293],[144.9035274,-37.8599715],[144.9035193,-37.8599151],[144.9034961,-37.8598616],[144.9034603,-37.8598053],[144.9031959,-37.8598478],[144.9031815,-37.8597974],[144.9036015,-37.8597285],[144.9036001,-37.8597009],[144.903564,-37.8593408],[144.9035415,-37.859303],[144.9028474,-37.8593238],[144.902669,-37.8593154],[144.9025968,-37.8591183],[144.9025366,-37.8589072],[144.902511,-37.8587841],[144.9025022,-37.8586455],[144.9025226,-37.8585146],[144.9025545,-37.8583874],[144.9025867,-37.8583195],[144.9026546,-37.8581986],[144.9027586,-37.858089],[144.9028465,-37.8579726],[144.9029179,-37.8578061],[144.9029242,-37.8577696],[144.9030135,-37.8575736],[144.9030235,-37.8575516],[144.9030297,-37.8575367],[144.903045,-37.8575001],[144.903041,-37.8574787],[144.9030272,-37.8574608],[144.902993,-37.857448],[144.9026728,-37.8565257],[144.9025046,-37.8560304],[144.9019858,-37.8545049],[144.90185,-37.8545373],[144.9018445,-37.8545232],[144.9019557,-37.8544625],[144.9020333,-37.8544192],[144.9020135,-37.8543903],[144.9019922,-37.8543626],[144.9019271,-37.8543209],[144.9018961,-37.8542983],[144.9018419,-37.8542035],[144.901788,-37.8541615],[144.9017551,-37.854107],[144.9017428,-37.8540766],[144.9017489,-37.8540441],[144.9017605,-37.8540073],[144.9017444,-37.8539774],[144.9017201,-37.8539604],[144.9016795,-37.853937],[144.9016388,-37.8539222],[144.9016046,-37.8538865],[144.9015225,-37.8537718],[144.9015991,-37.8537298],[144.9015492,-37.8536689],[144.9012426,-37.8538137],[144.9012266,-37.8537171],[144.9011769,-37.8536539],[144.9011104,-37.8536086],[144.901061,-37.8535761],[144.9010193,-37.8535403],[144.9007683,-37.85325],[144.9007112,-37.8531825],[144.9006867,-37.8531725],[144.9006088,-37.8531009],[144.9005446,-37.8530251],[144.9004846,-37.8529532],[144.9003417,-37.8528479],[144.9002047,-37.8527051],[144.8995295,-37.8520895],[144.8994146,-37.8520138],[144.898792,-37.8514738],[144.89853,-37.8512561],[144.8984578,-37.8512204],[144.898375,-37.8512025],[144.8983065,-37.8512019],[144.8982451,-37.8511619],[144.8982302,-37.8511257],[144.8981863,-37.8510801],[144.8980401,-37.8509784],[144.8978886,-37.8508842],[144.8976199,-37.8507176],[144.8972306,-37.8504926],[144.8964666,-37.8499626],[144.8964283,-37.8499461],[144.8963996,-37.8499456],[144.8963709,-37.8499575],[144.8963488,-37.849955],[144.8963101,-37.849935],[144.896246,-37.8498771],[144.896206,-37.8498306],[144.8961623,-37.8497834],[144.8961379,-37.8497359],[144.89599,-37.8495925],[144.8959577,-37.8495806],[144.8959361,-37.849581],[144.8959227,-37.8495812],[144.895908,-37.8495765],[144.895887,-37.8495698],[144.8954258,-37.8490444],[144.8953485,-37.8489311],[144.8952748,-37.8488001],[144.8952285,-37.8486598],[144.8952548,-37.8484738],[144.8953338,-37.8482941],[144.8954509,-37.84808],[144.8955839,-37.8479159],[144.8957659,-37.8477437],[144.8958707,-37.8476655],[144.8959741,-37.8476111],[144.8961945,-37.8475344],[144.8964204,-37.8474756],[144.8966378,-37.8474728],[144.8968525,-37.8474857],[144.8970938,-37.8475003],[144.8973166,-37.8475326],[144.8973498,-37.8475518],[144.8975509,-37.8475706],[144.897575,-37.8475579],[144.8976371,-37.8475681],[144.8976738,-37.8475783],[144.8977132,-37.847605],[144.8977551,-37.8476149],[144.8978361,-37.8476242],[144.8979595,-37.8476216],[144.8980376,-37.8476291],[144.8981029,-37.8476522],[144.8981617,-37.8476811],[144.8982126,-37.8477162],[144.8982924,-37.8478025],[144.8984058,-37.8479974],[144.898539,-37.8482598],[144.8986025,-37.8483563],[144.8986646,-37.8484044],[144.8987267,-37.8484795],[144.8987557,-37.8485113],[144.8987791,-37.8485592],[144.8987996,-37.8486199],[144.8988178,-37.8486865],[144.8988379,-37.8487343],[144.8988466,-37.8487483],[144.898864,-37.8487574],[144.8988869,-37.84876],[144.8989399,-37.8487651],[144.8989984,-37.848778],[144.8990554,-37.8488037],[144.899122,-37.8488502],[144.8991927,-37.8489067],[144.8992723,-37.8489812],[144.8993108,-37.8490236],[144.8993458,-37.8490557],[144.8993776,-37.8490682],[144.8995421,-37.8491308],[144.8996424,-37.8491359],[144.899847,-37.849346],[144.9000613,-37.8495445],[144.9002593,-37.8496989],[144.900472,-37.8498456],[144.9007381,-37.8499898],[144.9010482,-37.8501302],[144.9036478,-37.8513221],[144.9041234,-37.8514973],[144.9045096,-37.8516038],[144.905481,-37.8517258],[144.9038299,-37.8500183],[144.9032548,-37.8497946],[144.9020017,-37.8492592],[144.9013322,-37.8489136],[144.9008087,-37.8485205],[144.9003881,-37.848107],[144.9000963,-37.8476529],[144.8997135,-37.8468335],[144.9014703,-37.8461243],[144.9030568,-37.8454862],[144.9038408,-37.8462825],[144.9041158,-37.8465461],[144.9044149,-37.8468499],[144.9046465,-37.8470869],[144.904785,-37.8472348],[144.9050688,-37.8475257],[144.9053076,-37.8477229],[144.9054363,-37.8478333],[144.9056201,-37.8480054],[144.9059057,-37.8482919],[144.9063188,-37.8486932],[144.9066823,-37.8490719],[144.9067659,-37.8491417],[144.9068415,-37.8492091],[144.906874,-37.8492419],[144.9069187,-37.8492723],[144.9069408,-37.8492837],[144.9069741,-37.8492935],[144.9069969,-37.8492914],[144.9070158,-37.8492748],[144.9070373,-37.8492514],[144.9070531,-37.8492042],[144.9070688,-37.8491719],[144.907094,-37.8491386],[144.9071211,-37.8491001],[144.9071432,-37.8490689],[144.9071604,-37.849003],[144.9071684,-37.8489251],[144.9071925,-37.848793],[144.9071962,-37.8486817],[144.9072087,-37.848654],[144.9072258,-37.8486301],[144.9072483,-37.8486034],[144.9072537,-37.848574],[144.9072522,-37.8485397],[144.9072436,-37.8485021],[144.9072344,-37.848462],[144.9072086,-37.8483788],[144.9071948,-37.8483468],[144.9071731,-37.848328],[144.9071367,-37.848308],[144.9065921,-37.8480731],[144.9060378,-37.8478332],[144.9059186,-37.8477754],[144.9058437,-37.8477301],[144.9057891,-37.8476768],[144.905751,-37.8476206],[144.9057328,-37.8475555],[144.90573,-37.8474703],[144.9057482,-37.8473961],[144.9060002,-37.8473367],[144.9054516,-37.8459006],[144.9047509,-37.8440756],[144.9039136,-37.8418591],[144.9029676,-37.8394552],[144.904715,-37.8391104],[144.9049512,-37.8390672],[144.9050788,-37.8390533],[144.9052063,-37.8390487],[144.9053617,-37.8390456],[144.9056046,-37.839053],[144.9058021,-37.8390789],[144.9059669,-37.8391125],[144.9059806,-37.8391405],[144.9059942,-37.8391694],[144.9060036,-37.839202],[144.9060203,-37.8392198],[144.9060492,-37.8392356],[144.9060843,-37.8392454],[144.9061226,-37.8392528],[144.9061551,-37.8392556],[144.9061909,-37.8393611],[144.9061895,-37.8394546],[144.9064706,-37.8394629],[144.9064724,-37.839576],[144.906437,-37.8406767],[144.9064272,-37.8409807],[144.9065289,-37.8411338],[144.9065017,-37.8411459],[144.906472,-37.8413531],[144.9065452,-37.8413621],[144.9065828,-37.8413471],[144.9067121,-37.8415524],[144.9065239,-37.8416206],[144.9065145,-37.8416048],[144.9062738,-37.8416903],[144.9064663,-37.8420296],[144.9067108,-37.841936],[144.9074607,-37.8431952],[144.9075244,-37.8432273],[144.9076097,-37.8431936],[144.9075966,-37.8431708],[144.9076377,-37.8431563],[144.9076119,-37.8430843],[144.9076988,-37.8430648],[144.9077366,-37.8431808],[144.9078136,-37.843165],[144.9081997,-37.8434795],[144.9085214,-37.8444507],[144.9089429,-37.8444884],[144.9125517,-37.8493124],[144.9125998,-37.8493307],[144.9126511,-37.8493421],[144.9126984,-37.849345],[144.9127387,-37.8493469],[144.9127737,-37.8493485],[144.91286,-37.8493328],[144.9129232,-37.8493139],[144.9129917,-37.8492859],[144.9130528,-37.8492592],[144.9131072,-37.8492335],[144.9135682,-37.8490271],[144.9143003,-37.848663],[144.9143413,-37.8486429],[144.9143785,-37.8486285],[144.9144132,-37.8486176],[144.9144573,-37.8486067],[144.9144952,-37.8486061],[144.9147813,-37.8486003],[144.9157596,-37.8481145],[144.9161834,-37.8479135],[144.9167835,-37.847647],[144.916849,-37.8476115],[144.9168981,-37.8475808],[144.9169413,-37.8475516],[144.9169839,-37.847514],[144.9170146,-37.8474822],[144.917034,-37.8474572],[144.9170487,-37.8474192],[144.9170562,-37.8473752],[144.9170613,-37.8473313],[144.9170586,-37.8473001],[144.9170559,-37.8472689],[144.9170479,-37.8472363],[144.917033,-37.8472037],[144.9168147,-37.8469051],[144.916297,-37.8461971],[144.9141625,-37.8433912],[144.913377,-37.8423587],[144.9136108,-37.8420303],[144.9140722,-37.8416346],[144.9145496,-37.841236],[144.9149573,-37.8409702],[144.9153408,-37.8407467],[144.9157728,-37.8405362],[144.9165522,-37.8402055],[144.9172049,-37.8399897],[144.9176675,-37.8398641],[144.9182171,-37.839779],[144.9184939,-37.8397683],[144.9186955,-37.8398235],[144.918802,-37.839811],[144.9188304,-37.8401049],[144.9195943,-37.8399402],[144.9199707,-37.8398625],[144.9201569,-37.8398269],[144.920339,-37.8398202],[144.9204676,-37.8398267],[144.9205645,-37.8398597],[144.9206654,-37.8399055],[144.9207589,-37.8399097],[144.9207394,-37.8401405],[144.9208411,-37.8401006],[144.9209367,-37.8400806],[144.9220364,-37.8399434],[144.9223816,-37.8398824],[144.9226007,-37.8398663],[144.9227959,-37.8398671],[144.9229728,-37.8398916],[144.9230897,-37.8399135],[144.9231863,-37.8399482],[144.9232656,-37.8399775],[144.9233107,-37.8400148],[144.9233125,-37.8405765],[144.9233957,-37.8405104],[144.9234291,-37.8404911],[144.9234828,-37.8404654],[144.9235836,-37.8404349],[144.9237252,-37.8404223],[144.9244238,-37.8404092],[144.9251556,-37.8404013],[144.9257184,-37.8404],[144.9260301,-37.8404175],[144.9262401,-37.8404349],[144.9263775,-37.8404808],[144.9264949,-37.8405454],[144.9266204,-37.8406513],[144.9266723,-37.8406734],[144.9267114,-37.840686],[144.9267994,-37.8404286],[144.9269097,-37.8401094],[144.9269218,-37.8400827],[144.9285279,-37.8404083],[144.9290867,-37.8405244],[144.9291176,-37.840536],[144.9291418,-37.8405478],[144.929158,-37.8405629],[144.9291722,-37.8405823],[144.9291865,-37.840606],[144.9292092,-37.8406303],[144.9292321,-37.8406454],[144.9292769,-37.8406716],[144.9293219,-37.8406879],[144.9293674,-37.8406954],[144.9294199,-37.840695],[144.9294756,-37.8406859],[144.9295115,-37.8406721],[144.9295405,-37.8406568],[144.9295721,-37.8406466],[144.9296105,-37.8406411],[144.9296413,-37.8406424],[144.9305424,-37.8408381],[144.9305782,-37.840846],[144.9305989,-37.8408659],[144.9306233,-37.8408843],[144.9306453,-37.8408941],[144.9306692,-37.8409021],[144.9306982,-37.8409065],[144.9307277,-37.8409074],[144.9307643,-37.8409013],[144.9307916,-37.840892],[144.9313691,-37.8410147],[144.931357,-37.8410523],[144.9316232,-37.8411106],[144.9315803,-37.8411847],[144.9316614,-37.8412101],[144.9315099,-37.8416502],[144.9308561,-37.8415064],[144.9308336,-37.8415673],[144.9307984,-37.841562],[144.9307739,-37.841562],[144.9307448,-37.8415654],[144.9307186,-37.841575],[144.9306955,-37.8415906],[144.9306834,-37.8416049],[144.9306656,-37.8416308],[144.930663,-37.841648],[144.9306609,-37.8416695],[144.9306663,-37.8416907],[144.9306767,-37.8417164],[144.9306878,-37.8417267],[144.9306995,-37.8417367],[144.9307216,-37.8417534],[144.9307542,-37.8417627],[144.9307803,-37.8417698],[144.930836,-37.8417791],[144.9308635,-37.8417812],[144.9309131,-37.8418694],[144.9309942,-37.8419483],[144.9310774,-37.8419033],[144.9311163,-37.8418879],[144.9311545,-37.8418773],[144.9311934,-37.841871],[144.9312336,-37.8418704],[144.9312738,-37.8418742],[144.9313791,-37.8419001],[144.9315729,-37.8419398],[144.9315816,-37.8419944],[144.931591,-37.8420187],[144.9316628,-37.8420457],[144.9316507,-37.8420786],[144.9323654,-37.8422249],[144.9323011,-37.8424519],[144.932222,-37.8424355],[144.932215,-37.8424583],[144.9322126,-37.8424662],[144.9322503,-37.8424828],[144.9322707,-37.8424977],[144.9322879,-37.8425368],[144.9322857,-37.8425533],[144.9322784,-37.8425692],[144.9322744,-37.8425777],[144.9322673,-37.8425833],[144.9322827,-37.8426011],[144.9323271,-37.84262],[144.9323537,-37.8426409],[144.9323847,-37.8427183],[144.9324133,-37.8427635],[144.9324602,-37.8428004],[144.9324872,-37.8428113],[144.9325118,-37.8428186],[144.9325588,-37.8428186],[144.9325958,-37.8428113],[144.9326628,-37.8427894],[144.9327606,-37.8427827],[144.9328369,-37.8427797],[144.9328731,-37.8427888],[144.9329162,-37.84279],[144.9329501,-37.8427891],[144.9329817,-37.8427852],[144.9330175,-37.842777],[144.9330408,-37.8427744],[144.9330641,-37.8427657],[144.9331373,-37.8427329],[144.933181,-37.8426871],[144.9332131,-37.842625],[144.9332446,-37.8425408],[144.9332754,-37.8424418],[144.9333172,-37.8424445],[144.9338239,-37.8425165],[144.9341814,-37.8425778],[144.9349129,-37.8427452],[144.9357337,-37.8429538],[144.9364632,-37.8431741],[144.9368253,-37.8432885],[144.9369943,-37.8433415],[144.9372521,-37.8434134],[144.9370684,-37.8435766],[144.9375822,-37.843735],[144.9381906,-37.8439526],[144.9387056,-37.8441898],[144.9392114,-37.8444832],[144.9396491,-37.8447814],[144.9396269,-37.844822],[144.939843,-37.8449376],[144.9400131,-37.8450825],[144.9400695,-37.8451048],[144.9400869,-37.8451116],[144.9401043,-37.8451185],[144.9401646,-37.8451282],[144.9401808,-37.8451308],[144.9401969,-37.8451334],[144.940744,-37.8453081],[144.9412604,-37.8455061],[144.9420067,-37.8457936],[144.9424727,-37.8459647],[144.9426994,-37.8460653],[144.943323,-37.8462972],[144.9446828,-37.8468747],[144.9450745,-37.8470385],[144.9458067,-37.8473308],[144.9470597,-37.8479195],[144.9479836,-37.8483105],[144.948345,-37.8484752],[144.9494112,-37.8490049],[144.9500518,-37.8493428],[144.9506869,-37.8496342],[144.9507559,-37.8496673],[144.9508857,-37.8497258],[144.9511561,-37.8497737],[144.9512658,-37.849795],[144.9513327,-37.8498099],[144.9513943,-37.849827],[144.9516949,-37.8499157],[144.952025,-37.8500467],[144.9523302,-37.8501768],[144.9526821,-37.8503216],[144.9529168,-37.8504267],[144.9531281,-37.8505317],[144.9536413,-37.8508255],[144.9539024,-37.8509571],[144.9541115,-37.8510579],[144.954772,-37.8513359],[144.9554017,-37.8516165],[144.9559468,-37.851859],[144.9562674,-37.8520231],[144.9574209,-37.8525806],[144.95774,-37.8527696],[144.9576648,-37.8528586],[144.9577138,-37.8528575],[144.9577628,-37.8528613],[144.9578047,-37.8528649],[144.9578415,-37.852871],[144.9578765,-37.8528798],[144.9579141,-37.8528896],[144.958099,-37.8529644],[144.9582392,-37.8530293],[144.958563,-37.8531795],[144.9591155,-37.8534227],[144.9594033,-37.8535691],[144.9599331,-37.8538154],[144.9611918,-37.8544656],[144.961745,-37.854751],[144.9624486,-37.8551548],[144.9624826,-37.8551744],[144.9624163,-37.8552534],[144.9627065,-37.85528],[144.9632157,-37.8555839],[144.9635202,-37.8557595],[144.9638043,-37.8559469],[144.9641991,-37.8562066],[144.9642093,-37.8562184],[144.9641544,-37.8562818],[144.9642871,-37.8562912],[144.9643389,-37.8563056],[144.9644093,-37.8563269],[144.9644743,-37.8563545],[144.9645333,-37.8563827],[144.9646207,-37.8564402],[144.9647579,-37.8565635],[144.964891,-37.8566864],[144.965013,-37.8568174],[144.9650992,-37.8569152],[144.9651853,-37.8570111],[144.9652806,-37.8571174],[144.9653896,-37.8572431],[144.965532,-37.8574099],[144.9656285,-37.8575403],[144.9660731,-37.8582038],[144.9662818,-37.858501],[144.9663909,-37.8588088],[144.9665134,-37.8590734],[144.9666636,-37.8592772],[144.9667408,-37.8594352],[144.9668441,-37.8597599],[144.9668606,-37.8597832],[144.9668958,-37.8597957],[144.9669368,-37.8597661],[144.9669432,-37.8597139],[144.9669967,-37.8595834],[144.9670484,-37.8595416],[144.9671135,-37.8595159],[144.9672279,-37.859478],[144.9673054,-37.8594523],[144.9674312,-37.859395],[144.9675203,-37.8593705],[144.9676602,-37.859361],[144.9678523,-37.8593619],[144.9680648,-37.859401],[144.968255,-37.8594252],[144.9683914,-37.8594338],[144.9685086,-37.8594223],[144.968571,-37.8594309],[144.9686352,-37.8594456],[144.968702,-37.8594687],[144.9688161,-37.8595119],[144.9689172,-37.8595431],[144.969077,-37.8597164],[144.9693587,-37.8602275],[144.9693233,-37.8602944],[144.9693556,-37.8603617],[144.969411,-37.8604182],[144.9694352,-37.8604587],[144.9694138,-37.8605332],[144.9694885,-37.8606665],[144.9696526,-37.8608265],[144.9698613,-37.8609461],[144.9702709,-37.8612927],[144.9704926,-37.8614503],[144.9706184,-37.8616341],[144.9706234,-37.8617767],[144.9704571,-37.8618603],[144.9703307,-37.8618776],[144.9703538,-37.8619576],[144.9704649,-37.8620105],[144.9704994,-37.8620287],[144.97054,-37.862058],[144.9705794,-37.8621058],[144.9707245,-37.8622976],[144.9707796,-37.8624105],[144.9708234,-37.862497],[144.9708369,-37.8625255],[144.9709567,-37.8627107],[144.9709961,-37.8627855],[144.9710351,-37.8628599],[144.9710694,-37.86295],[144.9710822,-37.8630385],[144.9710879,-37.8631363],[144.9710937,-37.8632662],[144.9710934,-37.8633721],[144.9710568,-37.8635783],[144.9710581,-37.8636161],[144.9710575,-37.8636543],[144.9709904,-37.8636829],[144.9709703,-37.863743],[144.9709663,-37.8637977],[144.9709774,-37.8639004],[144.9709672,-37.8639754],[144.9709558,-37.864046],[144.9709172,-37.8641338],[144.970909,-37.8641513],[144.9709015,-37.8641649],[144.9708888,-37.8641878],[144.9708705,-37.8642185],[144.9708062,-37.8643113],[144.9708015,-37.864322],[144.9707974,-37.8643266],[144.9707934,-37.8643308],[144.9707846,-37.8643379],[144.9707749,-37.8643459],[144.970763,-37.8643528],[144.970751,-37.8643595],[144.9707335,-37.8643669],[144.9707197,-37.8643708],[144.9707112,-37.8643731],[144.970702,-37.8643754],[144.9704777,-37.864416],[144.9704872,-37.8644814],[144.9689871,-37.8647026],[144.9690272,-37.8648171],[144.9690796,-37.8648101],[144.9691137,-37.864838],[144.9691816,-37.864853],[144.9692484,-37.8648394],[144.9692693,-37.864811],[144.9692804,-37.8647733],[144.9694653,-37.8647471],[144.9696954,-37.8648497],[144.9700406,-37.8650386],[144.9703005,-37.8649001],[144.9707465,-37.8652381],[144.9711089,-37.8654448],[144.9715644,-37.8659424],[144.9724709,-37.8665752],[144.9732524,-37.8673115],[144.973986,-37.8680441],[144.9742059,-37.8683596],[144.9743687,-37.8686216],[144.9746179,-37.868981],[144.9749596,-37.8694839],[144.9751347,-37.869619],[144.9751896,-37.8696687],[144.9752665,-37.8697513],[144.9753093,-37.8698086],[144.9753362,-37.8698534],[144.9754027,-37.8700016],[144.975448,-37.8701261],[144.975495,-37.8702687],[144.975511,-37.8703522],[144.9755234,-37.8704483],[144.9755553,-37.8705829],[144.9755778,-37.8706674],[144.9756049,-37.8707762],[144.9756176,-37.8708947],[144.9756181,-37.8709841],[144.9756143,-37.8711361],[144.9755998,-37.8712409],[144.97559,-37.8713238],[144.9755756,-37.8714054],[144.975555,-37.8714579],[144.9754934,-37.8716108],[144.9753257,-37.8716953],[144.9741586,-37.8720582],[144.9741382,-37.8720652],[144.9741188,-37.8720803],[144.974102,-37.8721025],[144.9741056,-37.8721398],[144.9741672,-37.8722012]]},"properties":{"source_geometry_id":"osm:way/45324280","geometry_status":"AVAILABLE_SOURCE_VERTICES","source_tags":{"natural":"coastline","note":"Basic shape only - needs finer detail"},"source_authority":["S021","S022"],"selection":"Original segments with segment bbox intersecting plot extent; no synthetic clipping vertices"}},{"type":"Feature","geometry":{"type":"LineString","coordinates":[[144.9741672,-37.8722012],[144.9760591,-37.8731426],[144.9763503,-37.8752551],[144.9754866,-37.8753299],[144.9755014,-37.8754426],[144.9752312,-37.8754633],[144.9752161,-37.8753571],[144.9752455,-37.875354],[144.9752251,-37.8752088],[144.9751962,-37.8752119],[144.9751852,-37.8751309],[144.9752101,-37.8751236],[144.975195,-37.8749861],[144.9751676,-37.874989],[144.9751633,-37.8749604],[144.9751916,-37.8749577],[144.975178,-37.874847],[144.9751489,-37.8748494],[144.9751452,-37.8748205],[144.9751734,-37.8748173],[144.9751502,-37.8746609],[144.975123,-37.8746629],[144.9751183,-37.8746351],[144.9751478,-37.874632],[144.975127,-37.874474],[144.9749962,-37.8744853],[144.9749758,-37.8742805],[144.9750845,-37.8742759]]},"properties":{"source_geometry_id":"osm:way/45418597","geometry_status":"AVAILABLE_SOURCE_VERTICES","source_tags":{"natural":"coastline","note":"Basic shape only - needs finer detail"},"source_authority":["S022"],"selection":"Original segments with segment bbox intersecting plot extent; no synthetic clipping vertices"}},{"type":"Feature","geometry":{"type":"LineString","coordinates":[[144.9750845,-37.8742759],[144.9749471,-37.8732727]]},"properties":{"source_geometry_id":"osm:way/45418643","geometry_status":"AVAILABLE_SOURCE_VERTICES","source_tags":{"mooring":"commercial","natural":"coastline","note":"Basic shape only - needs finer detail"},"source_authority":["S022"],"selection":"Original segments with segment bbox intersecting plot extent; no synthetic clipping vertices"}},{"type":"Feature","geometry":{"type":"LineString","coordinates":[[144.9749471,-37.8732727],[144.9748349,-37.8733142],[144.974741,-37.8731914],[144.9746928,-37.8731194],[144.9748322,-37.8730643],[144.9737798,-37.8721716],[144.9737255,-37.8721306],[144.9736685,-37.8720994],[144.9736639,-37.8720978],[144.9736376,-37.8720887],[144.9736161,-37.872075],[144.9735945,-37.8720529],[144.9735558,-37.8720115],[144.9735195,-37.8719646],[144.9734957,-37.87194],[144.9734603,-37.8719146],[144.9734103,-37.8719095],[144.9733745,-37.8719212],[144.9733515,-37.8719378],[144.9733337,-37.8719586],[144.9733115,-37.872003],[144.9733046,-37.8720531],[144.973302,-37.8720855],[144.9732989,-37.8721363],[144.973312,-37.872187],[144.9733272,-37.8722646],[144.9733729,-37.8723355],[144.9731784,-37.8724406],[144.9731213,-37.8724614],[144.9730709,-37.87249],[144.973105,-37.8725314],[144.9731746,-37.8725111],[144.9734461,-37.8724331],[144.9739714,-37.8729995],[144.9739988,-37.8730248],[144.9740422,-37.8730723],[144.974089,-37.8731576],[144.9741132,-37.8732035],[144.9741516,-37.8732759],[144.9741805,-37.8733384],[144.9741994,-37.8733794],[144.9742107,-37.8734154],[144.974224,-37.8734795],[144.9742625,-37.8735798],[144.9743134,-37.8737541],[144.97433,-37.8738996],[144.974341,-37.874024],[144.9743448,-37.874089],[144.9743493,-37.8741341],[144.9743454,-37.874151],[144.9743416,-37.8741707],[144.9743415,-37.8741875],[144.9743405,-37.8742106],[144.9743484,-37.8742504],[144.9743563,-37.8742861],[144.9743889,-37.8743818],[144.9743957,-37.8743918],[144.9744024,-37.8744143],[144.9744023,-37.874443],[144.9744527,-37.8747826],[144.9744574,-37.8748416],[144.974447,-37.8748953],[144.9744367,-37.8749491],[144.9744266,-37.8750115],[144.9744187,-37.875056],[144.9744151,-37.8750865],[144.9744115,-37.8751218],[144.9744106,-37.875173],[144.9744065,-37.8758125],[144.9745077,-37.8765175],[144.9745923,-37.8766925],[144.9747619,-37.8770937],[144.9751058,-37.8777497],[144.9754025,-37.8784057],[144.9754699,-37.878606],[144.975491,-37.8786737],[144.9755229,-37.8787261],[144.9755733,-37.878759],[144.9756443,-37.8788036],[144.9756868,-37.8788217],[144.9757354,-37.8788324],[144.9758349,-37.8788341],[144.9759465,-37.8788294],[144.9759573,-37.8789044],[144.9759692,-37.8789864],[144.9758279,-37.8789984],[144.9757787,-37.879018],[144.9757037,-37.8791054],[144.9756852,-37.8792867],[144.9758172,-37.8801856],[144.9758107,-37.8802404],[144.9758053,-37.8802718],[144.9757996,-37.8803027],[144.9757998,-37.8803279],[144.975803,-37.8803524],[144.9758076,-37.8803663],[144.9758163,-37.8803834],[144.975836,-37.8804052],[144.9758509,-37.8804377],[144.9758645,-37.8804828],[144.9758774,-37.8805327],[144.9758842,-37.8806282],[144.9758852,-37.8806736],[144.9758744,-37.8807219],[144.9758756,-37.8807711],[144.9758938,-37.8810786],[144.9759019,-37.8812268],[144.975906,-37.8813377],[144.9759056,-37.8813628],[144.9758991,-37.8813831],[144.9758882,-37.8814141],[144.9758724,-37.8814503],[144.9758182,-37.8815192],[144.9757386,-37.8816106],[144.9756873,-37.8816783],[144.9756396,-37.8817488],[144.9755924,-37.8818376],[144.9755553,-37.8819264],[144.9755452,-37.8819687],[144.9755412,-37.882011],[144.9755419,-37.882081],[144.9755592,-37.8821425],[144.9756007,-37.8822103],[144.975663,-37.8822687],[144.975724,-37.8823165],[144.9757602,-37.8823212],[144.9757949,-37.8823219],[144.975835,-37.8823362],[144.9759177,-37.882388],[144.976192,-37.8825492],[144.9763791,-37.8826553],[144.97639,-37.8826831],[144.976421,-37.8827379],[144.9764486,-37.8827812],[144.9761973,-37.8830746],[144.976194,-37.8830974],[144.9762218,-37.8831116],[144.9762796,-37.8831047],[144.9764027,-37.8829437],[144.9764069,-37.8829383]]},"properties":{"source_geometry_id":"osm:way/45418645","geometry_status":"AVAILABLE_SOURCE_VERTICES","source_tags":{"natural":"coastline","note":"Basic shape only - needs finer detail"},"source_authority":["S022"],"selection":"Original segments with segment bbox intersecting plot extent; no synthetic clipping vertices"}},{"type":"Feature","geometry":{"type":"LineString","coordinates":[[144.9764069,-37.8829383],[144.9764719,-37.8829258],[144.9765095,-37.8829203],[144.9765893,-37.8829256],[144.9766396,-37.8829372],[144.9768546,-37.8830472],[144.9778904,-37.883785],[144.9784052,-37.8841932],[144.97918,-37.8847795],[144.979829,-37.885305],[144.9804188,-37.8858517],[144.9807111,-37.8861351],[144.9807893,-37.886216],[144.9809452,-37.886387],[144.9812834,-37.8866872],[144.9813625,-37.8867712],[144.9821779,-37.8875489],[144.9825246,-37.8879071],[144.9825281,-37.8879173],[144.9825293,-37.8879281],[144.9825305,-37.8879398],[144.9825318,-37.8879512],[144.9825301,-37.8879637],[144.9825246,-37.887977],[144.9825058,-37.8880099],[144.9824773,-37.8880184],[144.9824535,-37.8880305],[144.982425,-37.8880518],[144.9823803,-37.8880852],[144.9823341,-37.8881156],[144.9822786,-37.8881533],[144.982301,-37.8881801],[144.9823258,-37.8882083],[144.9823154,-37.8882478],[144.9821661,-37.8883366],[144.9821428,-37.8883509],[144.9821258,-37.8883608],[144.9821152,-37.8883712],[144.9821105,-37.8883797],[144.9821072,-37.8883882],[144.982105,-37.888397],[144.9821029,-37.8884062],[144.9821034,-37.8884173],[144.9821068,-37.8884246],[144.9821148,-37.8884292],[144.9821261,-37.8884329],[144.9821406,-37.8884366],[144.9821539,-37.8884385],[144.9821689,-37.8884377],[144.9821861,-37.8884352],[144.9822017,-37.888431],[144.9824063,-37.8883095],[144.9825718,-37.8883296],[144.9826079,-37.8883378],[144.9826463,-37.8883534],[144.982693,-37.8883764],[144.9827419,-37.8884012],[144.9828345,-37.8884569],[144.9829264,-37.8885198],[144.9830088,-37.88859],[144.9833693,-37.8889706],[144.9835505,-37.889174],[144.9836715,-37.8893091],[144.9838918,-37.8895743],[144.9841523,-37.8898877],[144.984256,-37.8900664],[144.9843058,-37.8901636],[144.9843611,-37.8902472],[144.984421,-37.8903455],[144.9850519,-37.891248]]},"properties":{"source_geometry_id":"osm:way/46008978","geometry_status":"AVAILABLE_SOURCE_VERTICES","source_tags":{"natural":"coastline","note":"Basic shape only - needs finer detail"},"source_authority":["S022"],"selection":"Original segments with segment bbox intersecting plot extent; no synthetic clipping vertices"}}]}
